1 39212U 13037E   25191.92266061  .00002379  00000-0  27157-3 0  9997
2 39212  97.9529 201.6295 0004971  44.8735 315.2881 14.87038552644057
1 39212U 13037E   25192.12452707  .00002326  00000-0  26560-3 0  9993
2 39212  97.9529 201.8316 0004951  44.4349 315.7264 14.87039605644148
1 39212U 13037E   25192.59554798  .00002369  00000-0  27045-3 0  9993
2 39212  97.9530 202.3034 0004907  43.3878 316.7723 14.87042660644156
1 39212U 13037E   25192.93199108  .00002442  00000-0  27857-3 0  9994
2 39212  97.9530 202.6404 0004880  42.5359 317.6234 14.87044778644200
1 39212U 13037E   25193.53758770  .00002632  00000-0  29972-3 0  9998
2 39212  97.9531 203.2470 0004850  41.0202 319.1378 14.87048634644299
1 39212U 13037E   25193.94131787  .00002704  00000-0  30771-3 0  9995
2 39212  97.9530 203.6513 0004818  40.0572 320.0998 14.87051332644358
1 39212U 13037E   25194.21047096  .00002844  00000-0  32334-3 0  9997
2 39212  97.9531 203.9209 0004800  39.3757 320.7807 14.87053228644454
1 39212U 13037E   25194.54691208  .00002905  00000-0  33012-3 0  9995
2 39212  97.9530 204.2579 0004762  38.3061 321.8492 14.87054986644444
1 39212U 13037E   25194.95064089  .00002875  00000-0  32673-3 0  9999
2 39212  97.9530 204.6623 0004725  37.2267 322.9276 14.87056966644502
1 39212U 13037E   25195.48894502  .00002864  00000-0  32553-3 0  9994
2 39212  97.9534 205.2015 0004697  35.8970 324.2560 14.87060131644589
1 39212U 13037E   25195.95996021  .00002855  00000-0  32441-3 0  9991
2 39212  97.9534 205.6733 0004657  34.5772 325.5746 14.87062682644653
1 39212U 13037E   25196.49826147  .00003358  00000-0  38043-3 0  9995
2 39212  97.9536 206.2124 0004602  33.1773 326.9730 14.87067589644796
1 39212U 13037E   25196.56554907  .00003338  00000-0  37820-3 0  9995
2 39212  97.9536 206.2798 0004594  33.0188 327.1313 14.87067972644743
1 39212U 13037E   25196.96927448  .00003085  00000-0  34998-3 0  9995
2 39212  97.9536 206.6842 0004564  31.9672 328.1820 14.87069759644805
1 39212U 13037E   25197.57486071  .00003299  00000-0  37379-3 0  9998
2 39212  97.9537 207.2908 0004505  30.3795 329.7681 14.87074275644890
1 39212U 13037E   25197.91129690  .00003162  00000-0  35858-3 0  9996
2 39212  97.9537 207.6278 0004479  29.3997 330.7470 14.87076211644942
1 39212U 13037E   25198.58416723  .00003492  00000-0  39521-3 0  9993
2 39212  97.9539 208.3018 0004428  27.9843 332.1610 14.87081980645045
1 39212U 13037E   25198.71874103  .00003373  00000-0  38194-3 0  9991
2 39212  97.9539 208.4366 0004418  27.6080 332.5369 14.87082690645124
1 39212U 13037E   25198.85331455  .00003428  00000-0  38815-3 0  9995
2 39212  97.9539 208.5714 0004404  27.2322 332.9124 14.87084029645088
1 39212U 13037E   25199.59346816  .00003203  00000-0  36300-3 0  9992
2 39212  97.9540 209.3127 0004339  25.0107 335.1318 14.87089138645199
1 39212U 13037E   25199.86261403  .00003273  00000-0  37074-3 0  9996
2 39212  97.9540 209.5823 0004301  24.2003 335.9413 14.87091518645233
1 39212U 13037E   25200.53547801  .00003082  00000-0  34954-3 0  9994
2 39212  97.9539 210.2563 0004229  22.1194 338.0204 14.87095230645336
1 39212U 13037E   25200.80462264  .00003006  00000-0  34100-3 0  9992
2 39212  97.9539 210.5258 0004206  21.2071 338.9318 14.87097693645430
1 39212U 13037E   25200.87190882  .00003041  00000-0  34489-3 0  9992
2 39212  97.9539 210.5932 0004195  20.9996 339.1391 14.87098198645387
1 39212U 13037E   25201.54476977  .00002906  00000-0  32987-3 0  9999
2 39212  97.9539 211.2673 0004133  18.9202 341.2167 14.87102288645488
1 39212U 13037E   25201.94848528  .00003114  00000-0  35291-3 0  9991
2 39212  97.9537 211.6717 0004089  17.6455 342.4902 14.87105300645540
1 39212U 13037E   25202.62134320  .00003243  00000-0  36731-3 0  9998
2 39212  97.9537 212.3458 0004027  15.6250 344.5089 14.87109782645641
1 39212U 13037E   25202.82320013  .00003299  00000-0  37356-3 0  9991
2 39212  97.9536 212.5480 0004002  15.0494 345.0840 14.87111192645733
1 39212U 13037E   25202.95777132  .00003349  00000-0  37905-3 0  9999
2 39212  97.9536 212.6828 0003981  14.6508 345.4823 14.87112227645696
1 39212U 13037E   25203.56334074  .00003989  00000-0  45027-3 0  9995
2 39212  97.9536 213.2894 0003918  12.9623 347.1692 14.87117573645787
1 39212U 13037E   25204.57261732  .00005044  00000-0  56741-3 0  9996
2 39212  97.9534 214.3006 0003815  10.3268 349.8026 14.87128206645937
1 39212U 13037E   25204.84175636  .00005211  00000-0  58594-3 0  9997
2 39212  97.9533 214.5702 0003779   9.5966 350.5321 14.87131221646035
1 39212U 13037E   25204.90904133  .00005440  00000-0  61144-3 0  9995
2 39212  97.9533 214.6377 0003765   9.7489 350.3799 14.87131917645983
1 39212U 13037E   25205.58188670  .00004960  00000-0  55796-3 0  9992
2 39212  97.9533 215.3118 0003704   7.6235 352.5036 14.87138023646088
1 39212U 13037E   25205.91830780  .00005031  00000-0  56584-3 0  9991
2 39212  97.9533 215.6489 0003670   6.5590 353.5673 14.87142217646130
1 39212U 13037E   25206.52386418  .00004230  00000-0  47672-3 0  9991
2 39212  97.9534 216.2556 0003629   3.9490 356.1754 14.87146847646229
1 39212U 13037E   25206.92756739  .00003978  00000-0  44863-3 0  9999
2 39212  97.9534 216.6601 0003601   2.4335 357.6898 14.87150220646287
1 39212U 13037E   25207.12941853  .00003886  00000-0  43836-3 0  9992
2 39212  97.9535 216.8623 0003584   1.6574 358.4653 14.87152153646375
1 39212U 13037E   25207.93682082  .00004236  00000-0  47724-3 0  9997
2 39212  97.9535 217.6711 0003466 358.5138   1.6067 14.87160552646436
1 39212U 13037E   25208.60965387  .00003947  00000-0  44507-3 0  9998
2 39212  97.9536 218.3452 0003423 356.2115   3.9074 14.87165263646538
1 39212U 13037E   25208.94606937  .00004000  00000-0  45090-3 0  9997
2 39212  97.9536 218.6822 0003371 354.8315   5.2865 14.87168152646588
1 39212U 13037E   25209.14791842  .00003773  00000-0  42567-3 0  9992
2 39212  97.9537 218.8844 0003355 354.0564   6.0611 14.87169103646670
1 39212U 13037E   25209.61889897  .00003794  00000-0  42799-3 0  9992
2 39212  97.9538 219.3562 0003298 352.3157   7.8007 14.87172715646681
1 39212U 13037E   25210.56085620  .00004219  00000-0  47504-3 0  9992
2 39212  97.9541 220.2999 0003199 348.8844  11.2300 14.87181136646821
1 39212U 13037E   25210.89726827  .00004459  00000-0  50173-3 0  9991
2 39212  97.9541 220.6369 0003162 347.7768  12.3370 14.87184228646878
1 39212U 13037E   25211.16639721  .00004649  00000-0  52282-3 0  9992
2 39212  97.9542 220.9065 0003125 346.8666  13.2468 14.87187107646979
1 39212U 13037E   25211.57009014  .00004711  00000-0  52958-3 0  9993
2 39212  97.9543 221.3110 0003094 345.5668  14.5459 14.87190771646974
1 39212U 13037E   25211.90649953  .00005265  00000-0  59110-3 0  9994
2 39212  97.9544 221.6480 0003054 344.3360  15.7761 14.87195282647028
1 39212U 13037E   25212.57931639  .00005385  00000-0  60432-3 0  9995
2 39212  97.9546 222.3220 0002958 341.9338  18.1772 14.87202254647128
1 39212U 13037E   25212.91572338  .00005156  00000-0  57882-3 0  9991
2 39212  97.9546 222.6591 0002924 340.8125  19.2980 14.87205671647171
1 39212U 13037E   25213.31941058  .00004909  00000-0  55131-3 0  9995
2 39212  97.9547 223.0636 0002928 338.8161  21.2933 14.87209486647234
1 39212U 13037E   25213.31941058  .00004909  00000-0  55131-3 0  9995
2 39212  97.9547 223.0636 0002928 338.8161  21.2933 14.87209486647290
1 39212U 13037E   25213.85765890  .00004408  00000-0  49573-3 0  9999
2 39212  97.9547 223.6028 0002885 336.4822  23.6261 14.87213895647313
1 39212U 13037E   25214.53046638  .00004069  00000-0  45801-3 0  9990
2 39212  97.9548 224.2770 0002833 333.4926  26.6144 14.87220358647416
1 39212U 13037E   25215.47239267  .00003647  00000-0  41108-3 0  9993
2 39212  97.9547 225.2207 0002762 328.5177  31.5873 14.87228336647615
1 39212U 13037E   25215.53967325  .00003469  00000-0  39129-3 0  9995
2 39212  97.9547 225.2881 0002764 328.3997  31.7052 14.87228218647567
1 39212U 13037E   25215.94335475  .00003291  00000-0  37156-3 0  9996
2 39212  97.9546 225.6926 0002724 326.2175  33.8867 14.87230842647621
1 39212U 13037E   25216.54887544  .00003821  00000-0  43026-3 0  9994
2 39212  97.9546 226.2993 0002671 323.2035  36.8997 14.87236570647716
1 39212U 13037E   25216.95255501  .00003801  00000-0  42801-3 0  9999
2 39212  97.9545 226.7038 0002630 321.0696  39.0330 14.87239249647772
1 39212U 13037E   25217.49079317  .00003801  00000-0  42797-3 0  9992
2 39212  97.9544 227.2431 0002595 318.7101  41.3918 14.87243298647911
1 39212U 13037E   25217.55807282  .00003847  00000-0  43307-3 0  9997
2 39212  97.9544 227.3105 0002588 318.4608  41.6411 14.87243872647864
1 39212U 13037E   25217.62535247  .00003945  00000-0  44398-3 0  9994
2 39212  97.9544 227.3780 0002582 318.1520  41.9498 14.87244450647879
1 39212U 13037E   25218.97094047  .00004296  00000-0  48275-3 0  9999
2 39212  97.9542 228.7263 0002460 311.5311  48.5694 14.87255423648074
1 39212U 13037E   25219.57645152  .00004042  00000-0  45453-3 0  9999
2 39212  97.9543 229.3332 0002457 308.8964  51.2032 14.87259909648168
1 39212U 13037E   25219.98012493  .00004108  00000-0  46181-3 0  9992
2 39212  97.9542 229.7377 0002438 306.6037  53.4954 14.87263100648228
1 39212U 13037E   25220.04740368  .00004129  00000-0  46416-3 0  9994
2 39212  97.9542 229.8052 0002439 306.2924  53.8066 14.87263687648296
1 39212U 13037E   25220.58563349  .00003698  00000-0  41636-3 0  9994
2 39212  97.9543 230.3446 0002421 303.7218  56.3766 14.87266550648310
1 39212U 13037E   25220.92202607  .00004613  00000-0  51776-3 0  9993
2 39212  97.9541 230.6818 0002381 302.0518  58.0467 14.87271337648365
1 39212U 13037E   25221.59480836  .00004886  00000-0  54788-3 0  9997
2 39212  97.9541 231.3560 0002343 297.5119  62.5858 14.87278279648467
1 39212U 13037E   25222.13303241  .00004546  00000-0  51021-3 0  9992
2 39212  97.9540 231.8953 0002332 294.9360  65.1614 14.87282489648607
1 39212U 13037E   25222.60397699  .00004193  00000-0  47096-3 0  9999
2 39212  97.9541 232.3672 0002332 292.0675  68.0293 14.87286312648615
